[{"OBJECT_NAME":"LUMELITE-4","OBJECT_ID":"2023-057B","EPOCH":"2026-03-09T12:04:50.773152","MEAN_MOTION":15.19877406,"ECCENTRICITY":0.00040087,"INCLINATION":9.9925,"RA_OF_ASC_NODE":94.5306,"ARG_OF_PERICENTER":70.4016,"MEAN_ANOMALY":289.6633,"EPHEMERIS_TYPE":0,"CLASSIFICATION_TYPE":"U","NORAD_CAT_ID":56309,"ELEMENT_SET_NO":999,"REV_AT_EPOCH":15885,"BSTAR":0.00062211184,"MEAN_MOTION_DOT":0.00014689,"MEAN_MOTION_DDOT":0},{"OBJECT_NAME":"CONNECTA IOT-10","OBJECT_ID":"2025-135AD","EPOCH":"2026-03-09T07:35:31.513344","MEAN_MOTION":15.2050793,"ECCENTRICITY":6.9e-5,"INCLINATION":97.4557,"RA_OF_ASC_NODE":184.3751,"ARG_OF_PERICENTER":59.0746,"MEAN_ANOMALY":301.0557,"EPHEMERIS_TYPE":0,"CLASSIFICATION_TYPE":"U","NORAD_CAT_ID":64555,"ELEMENT_SET_NO":999,"REV_AT_EPOCH":3968,"BSTAR":0.00024785757,"MEAN_MOTION_DOT":5.349e-5,"MEAN_MOTION_DDOT":0}]
