LUMELITE-4              
1 56309U 23057B   26068.50336543  .00014689  00000+0  62211-3 0  9993
2 56309   9.9925  94.5306 0004008  70.4016 289.6633 15.19877406158858
CONNECTA IOT-10         
1 64555U 25135AD  26068.31633696  .00005349  00000+0  24786-3 0  9990
2 64555  97.4557 184.3751 0000690  59.0746 301.0557 15.20507930 39688
